{"type": "FeatureCollection", "features": [ {"type": "Feature", "properties": {"norad_id": 33799, "name": "COSMOS 2251 DEB", "group": "cosmos-2251-debris", "lat": -21.230148535925046, "lon": -81.72423357774699, "alt_km": 622.6336992972483, "timestamp": "2025-12-07T14:37:05.596186+00:00", "meta": {"OBJECT_NAME": "COSMOS 2251 DEB", "OBJECT_ID": "1993-036AQ", "EPOCH": "2025-12-06T18:48:38.041632", "MEAN_MOTION": 14.7943464, "ECCENTRICITY": 0.00240264, "INCLINATION": 74.0324, "RA_OF_ASC_NODE": 93.5133, "ARG_OF_PERICENTER": 166.2518, "MEAN_ANOMALY": 321.7767, "EPHEMERIS_TYPE": 0, "CLASSIFICATION_TYPE": "U", "NORAD_CAT_ID": 33799, "ELEMENT_SET_NO": 999, "REV_AT_EPOCH": 88723, "BSTAR": 0.0020368855, "MEAN_MOTION_DOT": 0.0001528, "MEAN_MOTION_DDOT": 0}, "tle": {"line1": "1 33799U 93036AQ  25340.78377363  .00015280  00000+0  20369-2 0  9997", "line2": "2 33799  74.0324  93.5133 0024026 166.2518 321.7767 14.79434640887233"}}, "geometry": {"type": "Point", "coordinates": [-81.72423357774699, -21.230148535925046]}}, {"type": "Feature", "properties": {"norad_id": 33805, "name": "COSMOS 2251 DEB", "group": "cosmos-2251-debris", "lat": 15.11518036463112, "lon": -34.47110127331854, "alt_km": 731.1450477089602, "timestamp": "2025-12-07T14:37:05.596197+00:00", "meta": {"OBJECT_NAME": "COSMOS 2251 DEB", "OBJECT_ID": "1993-036AW", "EPOCH": "2025-12-06T08:54:01.135872", "MEAN_MOTION": 14.57833934, "ECCENTRICITY": 0.00604653, "INCLINATION": 74.0305, "RA_OF_ASC_NODE": 323.4474, "ARG_OF_PERICENTER": 154.2159, "MEAN_ANOMALY": 206.2042, "EPHEMERIS_TYPE": 0, "CLASSIFICATION_TYPE": "U", "NORAD_CAT_ID": 33805, "ELEMENT_SET_NO": 999, "REV_AT_EPOCH": 89134, "BSTAR": 0.00047404392, "MEAN_MOTION_DOT": 2.195e-05, "MEAN_MOTION_DDOT": 0}, "tle": {"line1": "1 33805U 93036AW  25340.37084648  .00002195  00000+0  47404-3 0  9992", "line2": "2 33805  74.0305 323.4474 0060465 154.2159 206.2042 14.57833934891343"}}, "geometry": {"type": "Point", "coordinates": [-34.47110127331854, 15.11518036463112]}}, {"type": "Feature", "properties": {"norad_id": 33811, "name": "COSMOS 2251 DEB", "group": "cosmos-2251-debris", "lat": 73.71434168510254, "lon": 50.228287622112596, "alt_km": 532.3141838172905, "timestamp": "2025-12-07T14:37:05.596207+00:00", "meta": {"OBJECT_NAME": "COSMOS 2251 DEB", "OBJECT_ID": "1993-036BC", "EPOCH": "2025-12-06T16:40:48.077760", "MEAN_MOTION": 15.04976723, "ECCENTRICITY": 0.00308272, "INCLINATION": 73.8377, "RA_OF_ASC_NODE": 315.19, "ARG_OF_PERICENTER": 37.0382, "MEAN_ANOMALY": 144.1331, "EPHEMERIS_TYPE": 0, "CLASSIFICATION_TYPE": "U", "NORAD_CAT_ID": 33811, "ELEMENT_SET_NO": 999, "REV_AT_EPOCH": 89927, "BSTAR": 0.0019947604, "MEAN_MOTION_DOT": 0.0002867, "MEAN_MOTION_DDOT": 0}, "tle": {"line1": "1 33811U 93036BC  25340.69500090  .00028670  00000+0  19948-2 0  9995", "line2": "2 33811  73.8377 315.1900 0030827  37.0382 144.1331 15.04976723899271"}}, "geometry": {"type": "Point", "coordinates": [50.228287622112596, 73.71434168510254]}}, {"type": "Feature", "properties": {"norad_id": 33815, "name": "COSMOS 2251 DEB", "group": "cosmos-2251-debris", "lat": -56.820176789940206, "lon": 161.22784900991653, "alt_km": 522.1881348721427, "timestamp": "2025-12-07T14:37:05.596218+00:00", "meta": {"OBJECT_NAME": "COSMOS 2251 DEB", "OBJECT_ID": "1993-036BG", "EPOCH": "2025-12-06T17:02:30.503328", "MEAN_MOTION": 15.16006069, "ECCENTRICITY": 0.00038295, "INCLINATION": 73.9538, "RA_OF_ASC_NODE": 189.2245, "ARG_OF_PERICENTER": 245.619, "MEAN_ANOMALY": 188.9395, "EPHEMERIS_TYPE": 0, "CLASSIFICATION_TYPE": "U", "NORAD_CAT_ID": 33815, "ELEMENT_SET_NO": 999, "REV_AT_EPOCH": 88279, "BSTAR": 0.0091514723, "MEAN_MOTION_DOT": 0.00180316, "MEAN_MOTION_DDOT": 0}, "tle": {"line1": "1 33815U 93036BG  25340.71007527  .00180316  00000+0  91515-2 0  9995", "line2": "2 33815  73.9538 189.2245 0003829 245.6190 188.9395 15.16006069882798"}}, "geometry": {"type": "Point", "coordinates": [161.22784900991653, -56.820176789940206]}}, {"type": "Feature", "properties": {"norad_id": 33816, "name": "COSMOS 2251 DEB", "group": "cosmos-2251-debris", "lat": 39.66690242723494, "lon": -79.77060149653802, "alt_km": 762.6326167740854, "timestamp": "2025-12-07T14:37:05.596228+00:00", "meta": {"OBJECT_NAME": "COSMOS 2251 DEB", "OBJECT_ID": "1993-036BH", "EPOCH": "2025-12-06T18:51:07.975872", "MEAN_MOTION": 13.81770574, "ECCENTRICITY": 0.02650468, "INCLINATION": 73.8941, "RA_OF_ASC_NODE": 115.4871, "ARG_OF_PERICENTER": 129.5773, "MEAN_ANOMALY": 232.9089, "EPHEMERIS_TYPE": 0, "CLASSIFICATION_TYPE": "U", "NORAD_CAT_ID": 33816, "ELEMENT_SET_NO": 999, "REV_AT_EPOCH": 84591, "BSTAR": 0.00096590245, "MEAN_MOTION_DOT": 1.329e-05, "MEAN_MOTION_DDOT": 0}, "tle": {"line1": "1 33816U 93036BH  25340.78550898  .00001329  00000+0  96590-3 0  9992", "line2": "2 33816  73.8941 115.4871 0265046 129.5773 232.9089 13.81770574845912"}}, "geometry": {"type": "Point", "coordinates": [-79.77060149653802, 39.66690242723494]}}, {"type": "Feature", "properties": {"norad_id": 33818, "name": "COSMOS 2251 DEB", "group": "cosmos-2251-debris", "lat": -72.05103490887123, "lon": 115.02750841574428, "alt_km": 544.2244416692929, "timestamp": "2025-12-07T14:37:05.596239+00:00", "meta": {"OBJECT_NAME": "COSMOS 2251 DEB", "OBJECT_ID": "1993-036BK", "EPOCH": "2025-12-06T20:00:59.616576", "MEAN_MOTION": 15.11832953, "ECCENTRICITY": 0.00284909, "INCLINATION": 74.0752, "RA_OF_ASC_NODE": 178.4416, "ARG_OF_PERICENTER": 169.3349, "MEAN_ANOMALY": 212.0527, "EPHEMERIS_TYPE": 0, "CLASSIFICATION_TYPE": "U", "NORAD_CAT_ID": 33818, "ELEMENT_SET_NO": 999, "REV_AT_EPOCH": 89773, "BSTAR": 0.0034197623, "MEAN_MOTION_DOT": 0.00059476, "MEAN_MOTION_DDOT": 0}, "tle": {"line1": "1 33818U 93036BK  25340.83402334  .00059476  00000+0  34198-2 0  9992", "line2": "2 33818  74.0752 178.4416 0028490 169.3349 212.0527 15.11832953897730"}}, "geometry": {"type": "Point", "coordinates": [115.02750841574428, -72.05103490887123]}}, {"type": "Feature", "properties": {"norad_id": 33819, "name": "COSMOS 2251 DEB", "group": "cosmos-2251-debris", "lat": 70.15289985668986, "lon": -89.10346895102758, "alt_km": 713.7820351698092, "timestamp": "2025-12-07T14:37:05.596253+00:00", "meta": {"OBJECT_NAME": "COSMOS 2251 DEB", "OBJECT_ID": "1993-036BL", "EPOCH": "2025-12-06T20:11:04.565184", "MEAN_MOTION": 14.32192874, "ECCENTRICITY": 0.0088836, "INCLINATION": 74.1795, "RA_OF_ASC_NODE": 220.5148, "ARG_OF_PERICENTER": 83.6422, "MEAN_ANOMALY": 355.8472, "EPHEMERIS_TYPE": 0, "CLASSIFICATION_TYPE": "U", "NORAD_CAT_ID": 33819, "ELEMENT_SET_NO": 999, "REV_AT_EPOCH": 87411, "BSTAR": 0.0011491743, "MEAN_MOTION_DOT": 3.211e-05, "MEAN_MOTION_DDOT": 0}, "tle": {"line1": "1 33819U 93036BL  25340.84102506  .00003211  00000+0  11492-2 0  9990", "line2": "2 33819  74.1795 220.5148 0088836  83.6422 355.8472 14.32192874874115"}}, "geometry": {"type": "Point", "coordinates": [-89.10346895102758, 70.15289985668986]}}, {"type": "Feature", "properties": {"norad_id": 33821, "name": "COSMOS 2251 DEB", "group": "cosmos-2251-debris", "lat": -21.289243736300506, "lon": -19.912333806906055, "alt_km": 460.6094286189036, "timestamp": "2025-12-07T14:37:05.596264+00:00", "meta": {"OBJECT_NAME": "COSMOS 2251 DEB", "OBJECT_ID": "1993-036BN", "EPOCH": "2025-12-06T20:24:50.306400", "MEAN_MOTION": 15.2478512, "ECCENTRICITY": 0.00533722, "INCLINATION": 74.0289, "RA_OF_ASC_NODE": 155.2818, "ARG_OF_PERICENTER": 190.2546, "MEAN_ANOMALY": 169.7571, "EPHEMERIS_TYPE": 0, "CLASSIFICATION_TYPE": "U", "NORAD_CAT_ID": 33821, "ELEMENT_SET_NO": 999, "REV_AT_EPOCH": 74911, "BSTAR": 0.0018160489, "MEAN_MOTION_DOT": 0.00047158, "MEAN_MOTION_DDOT": 0}, "tle": {"line1": "1 33821U 93036BN  25340.85058225  .00047158  00000+0  18160-2 0  9999", "line2": "2 33821  74.0289 155.2818 0053372 190.2546 169.7571 15.24785120749119"}}, "geometry": {"type": "Point", "coordinates": [-19.912333806906055, -21.289243736300506]}}, {"type": "Feature", "properties": {"norad_id": 33822, "name": "COSMOS 2251 DEB", "group": "cosmos-2251-debris", "lat": -70.35941596285156, "lon": 75.89928605566558, "alt_km": 745.8819793434268, "timestamp": "2025-12-07T14:37:05.596274+00:00", "meta": {"OBJECT_NAME": "COSMOS 2251 DEB", "OBJECT_ID": "1993-036BP", "EPOCH": "2025-12-06T17:18:37.755648", "MEAN_MOTION": 14.13027938, "ECCENTRICITY": 0.0153758, "INCLINATION": 74.0694, "RA_OF_ASC_NODE": 204.3064, "ARG_OF_PERICENTER": 252.0221, "MEAN_ANOMALY": 171.587, "EPHEMERIS_TYPE": 0, "CLASSIFICATION_TYPE": "U", "NORAD_CAT_ID": 33822, "ELEMENT_SET_NO": 999, "REV_AT_EPOCH": 85969, "BSTAR": 0.0021349509, "MEAN_MOTION_DOT": 4.434e-05, "MEAN_MOTION_DDOT": 0}, "tle": {"line1": "1 33822U 93036BP  25340.72127032  .00004434  00000+0  21350-2 0  9994", "line2": "2 33822  74.0694 204.3064 0153758 252.0221 171.5870 14.13027938859696"}}, "geometry": {"type": "Point", "coordinates": [75.89928605566558, -70.35941596285156]}}, {"type": "Feature", "properties": {"norad_id": 33823, "name": "COSMOS 2251 DEB", "group": "cosmos-2251-debris", "lat": -16.964146234904977, "lon": 153.23778565366996, "alt_km": 819.3084244284673, "timestamp": "2025-12-07T14:37:05.596284+00:00", "meta": {"OBJECT_NAME": "COSMOS 2251 DEB", "OBJECT_ID": "1993-036BQ", "EPOCH": "2025-12-06T15:00:45.948384", "MEAN_MOTION": 13.98927565, "ECCENTRICITY": 0.02092497, "INCLINATION": 73.8087, "RA_OF_ASC_NODE": 160.0457, "ARG_OF_PERICENTER": 286.1868, "MEAN_ANOMALY": 142.7534, "EPHEMERIS_TYPE": 0, "CLASSIFICATION_TYPE": "U", "NORAD_CAT_ID": 33823, "ELEMENT_SET_NO": 999, "REV_AT_EPOCH": 85524, "BSTAR": 0.001267083, "MEAN_MOTION_DOT": 2.179e-05, "MEAN_MOTION_DDOT": 0}, "tle": {"line1": "1 33823U 93036BQ  25340.62553181  .00002179  00000+0  12671-2 0  9992", "line2": "2 33823  73.8087 160.0457 0209249 286.1868 142.7534 13.98927565855247"}}, "geometry": {"type": "Point", "coordinates": [153.23778565366996, -16.964146234904977]}}]}